[
    {
        "Altitude(m)": 558271.092236715,
        "Argument of Periapsis(deg)": 0.026491964442854003,
        "Eccentricity": 0.0,
        "Inclination(deg)": 53.0,
        "Latitude(deg)": 46.0305606225901,
        "Longitude(deg)": -47.207545181581104,
        "Mean Anomaly(deg)": 64.00277147031034,
        "RAAN(deg)": 4.960573474112068,
        "Satellite Name": "Starlink Shell 1 23",
        "Satellite Number": 23,
        "Semi-Major Axis(m)": 6931778.249405717,
        "Time(s)": 760
    },
    {
        "Altitude(m)": 558342.2124565623,
        "Argument of Periapsis(deg)": 0.02684054292236524,
        "Eccentricity": 0.0,
        "Inclination(deg)": 53.0,
        "Latitude(deg)": 46.34357679313458,
        "Longitude(deg)": -46.46585256263753,
        "Mean Anomaly(deg)": 64.62960267386707,
        "RAAN(deg)": 4.960054704034595,
        "Satellite Name": "Starlink Shell 1 23",
        "Satellite Number": 23,
        "Semi-Major Axis(m)": 6931778.249405717,
        "Time(s)": 770
    },
    {
        "Altitude(m)": 558412.2115008931,
        "Argument of Periapsis(deg)": 0.027189121401876473,
        "Eccentricity": 0.0,
        "Inclination(deg)": 53.0,
        "Latitude(deg)": 46.65115508470045,
        "Longitude(deg)": -45.715258386099514,
        "Mean Anomaly(deg)": 65.25643387742379,
        "RAAN(deg)": 4.959535933957121,
        "Satellite Name": "Starlink Shell 1 23",
        "Satellite Number": 23,
        "Semi-Major Axis(m)": 6931778.249405717,
        "Time(s)": 780
    },
    {
        "Altitude(m)": 558481.0460315227,
        "Argument of Periapsis(deg)": 0.02753769988138771,
        "Eccentricity": 0.0,
        "Inclination(deg)": 53.0,
        "Latitude(deg)": 46.953175953865035,
        "Longitude(deg)": -44.95572501592552,
        "Mean Anomaly(deg)": 65.8832650809805,
        "RAAN(deg)": 4.959017163879649,
        "Satellite Name": "Starlink Shell 1 23",
        "Satellite Number": 23,
        "Semi-Major Axis(m)": 6931778.249405717,
        "Time(s)": 790
    },
    {
        "Altitude(m)": 558548.6735066172,
        "Argument of Periapsis(deg)": 0.02788627836089895,
        "Eccentricity": 0.0,
        "Inclination(deg)": 53.0,
        "Latitude(deg)": 47.24951872975472,
        "Longitude(deg)": -44.1872241347421,
        "Mean Anomaly(deg)": 66.51009628453721,
        "RAAN(deg)": 4.958498393802175,
        "Satellite Name": "Starlink Shell 1 23",
        "Satellite Number": 23,
        "Semi-Major Axis(m)": 6931778.249405717,
        "Time(s)": 800
    },
    {
        "Altitude(m)": 558615.0522018077,
        "Argument of Periapsis(deg)": 0.02823485684041019,
        "Eccentricity": 0.0,
        "Inclination(deg)": 53.0,
        "Latitude(deg)": 47.54006173065898,
        "Longitude(deg)": -43.409736791540446,
        "Mean Anomaly(deg)": 67.13692748809392,
        "RAAN(deg)": 4.957979623724704,
        "Satellite Name": "Starlink Shell 1 23",
        "Satellite Number": 23,
        "Semi-Major Axis(m)": 6931778.249405717,
        "Time(s)": 810
    },
    {
        "Altitude(m)": 558680.1412308635,
        "Argument of Periapsis(deg)": 0.028583435319921423,
        "Eccentricity": 0.0,
        "Inclination(deg)": 53.0,
        "Latitude(deg)": 47.824682391202145,
        "Longitude(deg)": -42.623253454313684,
        "Mean Anomaly(deg)": 67.76375869165064,
        "RAAN(deg)": 4.95746085364723,
        "Satellite Name": "Starlink Shell 1 23",
        "Satellite Number": 23,
        "Semi-Major Axis(m)": 6931778.249405717,
        "Time(s)": 820
    },
    {
        "Altitude(m)": 558743.900565951,
        "Argument of Periapsis(deg)": 0.028932013799432665,
        "Eccentricity": 0.0,
        "Inclination(deg)": 53.0,
        "Latitude(deg)": 48.10325740032399,
        "Longitude(deg)": -41.827775577741406,
        "Mean Anomaly(deg)": 68.39058989520737,
        "RAAN(deg)": 4.956942083569757,
        "Satellite Name": "Starlink Shell 1 23",
        "Satellite Number": 23,
        "Semi-Major Axis(m)": 6931778.249405717,
        "Time(s)": 830
    },
    {
        "Altitude(m)": 558806.2910574242,
        "Argument of Periapsis(deg)": 0.029280592278943897,
        "Eccentricity": 0.0,
        "Inclination(deg)": 53.0,
        "Latitude(deg)": 48.37566285027624,
        "Longitude(deg)": -41.02331565712015,
        "Mean Anomaly(deg)": 69.01742109876407,
        "RAAN(deg)": 4.956423313492285,
        "Satellite Name": "Starlink Shell 1 23",
        "Satellite Number": 23,
        "Semi-Major Axis(m)": 6931778.249405717,
        "Time(s)": 840
    },
    {
        "Altitude(m)": 558867.274453201,
        "Argument of Periapsis(deg)": 0.029629170758455132,
        "Eccentricity": 0.0,
        "Inclination(deg)": 53.0,
        "Latitude(deg)": 48.641774396780946,
        "Longitude(deg)": -40.20989727805341,
        "Mean Anomaly(deg)": 69.64425230232078,
        "RAAN(deg)": 4.955904543414812,
        "Satellite Name": "Starlink Shell 1 23",
        "Satellite Number": 23,
        "Semi-Major Axis(m)": 6931778.249405717,
        "Time(s)": 850
    },
    {
        "Altitude(m)": 558926.813417638,
        "Argument of Periapsis(deg)": 0.02997774923796637,
        "Eccentricity": 0.0,
        "Inclination(deg)": 53.0,
        "Latitude(deg)": 48.90146743043259,
        "Longitude(deg)": -39.38755683921699,
        "Mean Anomaly(deg)": 70.2710835058775,
        "RAAN(deg)": 4.95538577333734,
        "Satellite Name": "Starlink Shell 1 23",
        "Satellite Number": 23,
        "Semi-Major Axis(m)": 6931778.249405717,
        "Time(s)": 860
    },
    {
        "Altitude(m)": 558984.8715499567,
        "Argument of Periapsis(deg)": 0.030326327717477602,
        "Eccentricity": 0.0,
        "Inclination(deg)": 53.0,
        "Latitude(deg)": 49.15461725936176,
        "Longitude(deg)": -38.55634274184444,
        "Mean Anomaly(deg)": 70.8979147094342,
        "RAAN(deg)": 4.954867003259867,
        "Satellite Name": "Starlink Shell 1 23",
        "Satellite Number": 23,
        "Semi-Major Axis(m)": 6931778.249405717,
        "Time(s)": 870
    },
    {
        "Altitude(m)": 559041.4134022115,
        "Argument of Periapsis(deg)": 0.030674906196988847,
        "Eccentricity": 0.0,
        "Inclination(deg)": 53.0,
        "Latitude(deg)": 49.40109930308869,
        "Longitude(deg)": -37.716317084625224,
        "Mean Anomaly(deg)": 71.52474591299092,
        "RAAN(deg)": 4.954348233182394,
        "Satellite Name": "Starlink Shell 1 23",
        "Satellite Number": 23,
        "Semi-Major Axis(m)": 6931778.249405717,
        "Time(s)": 880
    },
    {
        "Altitude(m)": 559096.4044967373,
        "Argument of Periapsis(deg)": 0.031023484676500086,
        "Eccentricity": 0.0,
        "Inclination(deg)": 53.0,
        "Latitude(deg)": 49.640789297420476,
        "Longitude(deg)": -36.86755565713355,
        "Mean Anomaly(deg)": 72.15157711654766,
        "RAAN(deg)": 4.9538294631049204,
        "Satellite Name": "Starlink Shell 1 23",
        "Satellite Number": 23,
        "Semi-Major Axis(m)": 6931778.249405717,
        "Time(s)": 890
    },
    {
        "Altitude(m)": 559149.8113431332,
        "Argument of Periapsis(deg)": 0.03137206315601132,
        "Eccentricity": 0.0,
        "Inclination(deg)": 53.0,
        "Latitude(deg)": 49.87356351014539,
        "Longitude(deg)": -36.01014790806372,
        "Mean Anomaly(deg)": 72.77840832010436,
        "RAAN(deg)": 4.953310693027448,
        "Satellite Name": "Starlink Shell 1 23",
        "Satellite Number": 23,
        "Semi-Major Axis(m)": 6931778.249405717,
        "Time(s)": 900
    },
    {
        "Altitude(m)": 559201.601454739,
        "Argument of Periapsis(deg)": 0.03172064163552255,
        "Eccentricity": 0.0,
        "Inclination(deg)": 53.0,
        "Latitude(deg)": 50.09929896717924,
        "Longitude(deg)": -35.14419839625443,
        "Mean Anomaly(deg)": 73.40523952366107,
        "RAAN(deg)": 4.9527919229499755,
        "Satellite Name": "Starlink Shell 1 23",
        "Satellite Number": 23,
        "Semi-Major Axis(m)": 6931778.249405717,
        "Time(s)": 910
    },
    {
        "Altitude(m)": 559251.743364603,
        "Argument of Periapsis(deg)": 0.0320692201150338,
        "Eccentricity": 0.0,
        "Inclination(deg)": 53.0,
        "Latitude(deg)": 50.31787368871828,
        "Longitude(deg)": -34.26982669371174,
        "Mean Anomaly(deg)": 74.03207072721779,
        "RAAN(deg)": 4.952273152872503,
        "Satellite Name": "Starlink Shell 1 23",
        "Satellite Number": 23,
        "Semi-Major Axis(m)": 6931778.249405717,
        "Time(s)": 920
    },
    {
        "Altitude(m)": 559300.2066409488,
        "Argument of Periapsis(deg)": 0.032417798594545036,
        "Eccentricity": 0.0,
        "Inclination(deg)": 53.0,
        "Latitude(deg)": 50.52916693483809,
        "Longitude(deg)": -33.387167248339594,
        "Mean Anomaly(deg)": 74.65890193077449,
        "RAAN(deg)": 4.95175438279503,
        "Satellite Name": "Starlink Shell 1 23",
        "Satellite Number": 23,
        "Semi-Major Axis(m)": 6931778.249405717,
        "Time(s)": 930
    },
    {
        "Altitude(m)": 559346.9619021086,
        "Argument of Periapsis(deg)": 0.03276637707405627,
        "Eccentricity": 0.0,
        "Inclination(deg)": 53.0,
        "Latitude(deg)": 50.73305945986183,
        "Longitude(deg)": -32.4963707140258,
        "Mean Anomaly(deg)": 75.28573313433121,
        "RAAN(deg)": 4.951235612717556,
        "Satellite Name": "Starlink Shell 1 23",
        "Satellite Number": 23,
        "Semi-Major Axis(m)": 6931778.249405717,
        "Time(s)": 940
    }
]